ONEWEB-0686             
1 56721U 23068M   26170.18001873  .00000009  00000+0 -90393-5 0  9992
2 56721  87.9086 228.3975 0002255 104.6844 255.4537 13.16595236151973
ONEWEB-0694             
1 56722U 23068N   26170.18634841  .00000030  00000+0  45664-4 0  9993
2 56722  87.9108 228.3611 0002542  96.8270 263.3150 13.16595060152032
ONEWEB-0696             
1 56723U 23068P   26170.22620875  .00000203  00000+0  50438-3 0  9997
2 56723  87.9001 258.8158 0001483 104.4555 255.6740 13.15546976149636
ONEWEB-0703             
1 56724U 23068Q   26170.23572728  .00000108  00000+0  25359-3 0  9990
2 56724  87.9002 258.7949 0001090  94.5329 265.5926 13.15548824149525
ONEWEB-0721             
1 56725U 23068R   26170.25834940  .00000128  00000+0  27127-3 0  9997
2 56725  86.6766  84.8555 0001889  77.8069 282.3275 13.22469562158210
ONEWEB-0015             
1 61594U 24188A   26170.06427868 -.00000376  00000+0 -10963-2 0  9993
2 61594  87.8882  20.7193 0002128  73.1854 286.9507 13.11414714 84704
ONEWEB-0687             
1 61595U 24188B   26170.05325077  .00000033  00000+0  51319-4 0  9992
2 61595  87.9126   5.5052 0002358  86.1409 273.9992 13.17648545 86148
ONEWEB-0688             
1 61596U 24188C   26170.23380994  .00000009  00000+0 -98708-5 0  9990
2 61596  87.9127   5.4690 0002594  62.6048 297.5347 13.17649277 86168
ONEWEB-0689             
1 61597U 24188D   26170.09818680  .00000251  00000+0  67201-3 0  9993
2 61597  87.8898  20.6710 0002088  91.0087 269.1280 13.11420706 84709
ONEWEB-0690             
1 61598U 24188E   26170.10837930  .00000521  00000+0  14344-2 0  9994
2 61598  87.8892  20.6804 0001233  75.8431 284.2834 13.11416793 84885
ONEWEB-0691             
1 61599U 24188F   26170.10329444  .00000446  00000+0  12213-2 0  9990
2 61599  87.8904  20.5904 0002112  78.3930 281.7435 13.11418802 84735
ONEWEB-0692             
1 61600U 24188G   26170.27622998  .00000348  00000+0  94594-3 0  9995
2 61600  87.8883  20.6688 0001960 109.8821 250.2518 13.11413962 84749
ONEWEB-0693             
1 61601U 24188H   26170.09374841  .00000011  00000+0 -59223-5 0  9997
2 61601  87.9123   5.5170 0001245  69.1032 291.0233 13.17648596 86135
ONEWEB-0695             
1 61602U 24188J   26170.09990077  .00000462  00000+0  12687-2 0  9992
2 61602  87.8878  20.6957 0002422  98.5954 261.5449 13.11418269 84719
ONEWEB-0697             
1 61603U 24188K   26170.28470016  .00000019  00000+0  18988-4 0  9990
2 61603  87.8883  20.6494 0001878 110.5150 249.6180 13.11414350 84726
ONEWEB-0698             
1 61604U 24188L   26170.03377679  .00000602  00000+0  16622-2 0  9994
2 61604  87.8883  20.7133 0001042 123.1768 236.9460 13.11416513 84718
