[{"OBJECT_NAME":"ONEWEB-0686","OBJECT_ID":"2023-068M","EPOCH":"2026-06-19T04:19:13.618272","MEAN_MOTION":13.16595236,"ECCENTRICITY":0.0002255,"INCLINATION":87.9086,"RA_OF_ASC_NODE":228.3975,"ARG_OF_PERICENTER":104.6844,"MEAN_ANOMALY":255.4537,"EPHEMERIS_TYPE":0,"CLASSIFICATION_TYPE":"U","NORAD_CAT_ID":56721,"ELEMENT_SET_NO":999,"REV_AT_EPOCH":15197,"BSTAR":-9.039300000000002e-06,"MEAN_MOTION_DOT":9e-08,"MEAN_MOTION_DDOT":0.0},{"OBJECT_NAME":"ONEWEB-0694","OBJECT_ID":"2023-068N","EPOCH":"2026-06-19T04:28:20.502624","MEAN_MOTION":13.1659506,"ECCENTRICITY":0.0002542,"INCLINATION":87.9108,"RA_OF_ASC_NODE":228.3611,"ARG_OF_PERICENTER":96.827,"MEAN_ANOMALY":263.315,"EPHEMERIS_TYPE":0,"CLASSIFICATION_TYPE":"U","NORAD_CAT_ID":56722,"ELEMENT_SET_NO":999,"REV_AT_EPOCH":15203,"BSTAR":4.5664e-05,"MEAN_MOTION_DOT":3e-07,"MEAN_MOTION_DDOT":0.0},{"OBJECT_NAME":"ONEWEB-0696","OBJECT_ID":"2023-068P","EPOCH":"2026-06-19T05:25:44.436000","MEAN_MOTION":13.15546976,"ECCENTRICITY":0.0001483,"INCLINATION":87.9001,"RA_OF_ASC_NODE":258.8158,"ARG_OF_PERICENTER":104.4555,"MEAN_ANOMALY":255.674,"EPHEMERIS_TYPE":0,"CLASSIFICATION_TYPE":"U","NORAD_CAT_ID":56723,"ELEMENT_SET_NO":999,"REV_AT_EPOCH":14963,"BSTAR":0.00050438,"MEAN_MOTION_DOT":2.03e-06,"MEAN_MOTION_DDOT":0.0},{"OBJECT_NAME":"ONEWEB-0703","OBJECT_ID":"2023-068Q","EPOCH":"2026-06-19T05:39:26.836992","MEAN_MOTION":13.15548824,"ECCENTRICITY":0.000109,"INCLINATION":87.9002,"RA_OF_ASC_NODE":258.7949,"ARG_OF_PERICENTER":94.5329,"MEAN_ANOMALY":265.5926,"EPHEMERIS_TYPE":0,"CLASSIFICATION_TYPE":"U","NORAD_CAT_ID":56724,"ELEMENT_SET_NO":999,"REV_AT_EPOCH":14952,"BSTAR":0.00025359,"MEAN_MOTION_DOT":1.08e-06,"MEAN_MOTION_DDOT":0.0},{"OBJECT_NAME":"ONEWEB-0721","OBJECT_ID":"2023-068R","EPOCH":"2026-06-19T06:12:01.388160","MEAN_MOTION":13.22469562,"ECCENTRICITY":0.0001889,"INCLINATION":86.6766,"RA_OF_ASC_NODE":84.8555,"ARG_OF_PERICENTER":77.8069,"MEAN_ANOMALY":282.3275,"EPHEMERIS_TYPE":0,"CLASSIFICATION_TYPE":"U","NORAD_CAT_ID":56725,"ELEMENT_SET_NO":999,"REV_AT_EPOCH":15821,"BSTAR":0.00027127,"MEAN_MOTION_DOT":1.28e-06,"MEAN_MOTION_DDOT":0.0},{"OBJECT_NAME":"ONEWEB-0015","OBJECT_ID":"2024-188A","EPOCH":"2026-06-19T01:32:33.677952","MEAN_MOTION":13.11414714,"ECCENTRICITY":0.0002128,"INCLINATION":87.8882,"RA_OF_ASC_NODE":20.7193,"ARG_OF_PERICENTER":73.1854,"MEAN_ANOMALY":286.9507,"EPHEMERIS_TYPE":0,"CLASSIFICATION_TYPE":"U","NORAD_CAT_ID":61594,"ELEMENT_SET_NO":999,"REV_AT_EPOCH":8470,"BSTAR":-0.0010963000000000001,"MEAN_MOTION_DOT":-3.76e-06,"MEAN_MOTION_DDOT":0.0},{"OBJECT_NAME":"ONEWEB-0687","OBJECT_ID":"2024-188B","EPOCH":"2026-06-19T01:16:40.866528","MEAN_MOTION":13.17648545,"ECCENTRICITY":0.0002358,"INCLINATION":87.9126,"RA_OF_ASC_NODE":5.5052,"ARG_OF_PERICENTER":86.1409,"MEAN_ANOMALY":273.9992,"EPHEMERIS_TYPE":0,"CLASSIFICATION_TYPE":"U","NORAD_CAT_ID":61595,"ELEMENT_SET_NO":999,"REV_AT_EPOCH":8614,"BSTAR":5.131900000000001e-05,"MEAN_MOTION_DOT":3.3e-07,"MEAN_MOTION_DDOT":0.0},{"OBJECT_NAME":"ONEWEB-0688","OBJECT_ID":"2024-188C","EPOCH":"2026-06-19T05:36:41.178816","MEAN_MOTION":13.17649277,"ECCENTRICITY":0.0002594,"INCLINATION":87.9127,"RA_OF_ASC_NODE":5.469,"ARG_OF_PERICENTER":62.6048,"MEAN_ANOMALY":297.5347,"EPHEMERIS_TYPE":0,"CLASSIFICATION_TYPE":"U","NORAD_CAT_ID":61596,"ELEMENT_SET_NO":999,"REV_AT_EPOCH":8616,"BSTAR":-9.8708e-06,"MEAN_MOTION_DOT":9e-08,"MEAN_MOTION_DDOT":0.0},{"OBJECT_NAME":"ONEWEB-0689","OBJECT_ID":"2024-188D","EPOCH":"2026-06-19T02:21:23.339520","MEAN_MOTION":13.11420706,"ECCENTRICITY":0.0002088,"INCLINATION":87.8898,"RA_OF_ASC_NODE":20.671,"ARG_OF_PERICENTER":91.0087,"MEAN_ANOMALY":269.128,"EPHEMERIS_TYPE":0,"CLASSIFICATION_TYPE":"U","NORAD_CAT_ID":61597,"ELEMENT_SET_NO":999,"REV_AT_EPOCH":8470,"BSTAR":0.00067201,"MEAN_MOTION_DOT":2.51e-06,"MEAN_MOTION_DDOT":0.0},{"OBJECT_NAME":"ONEWEB-0690","OBJECT_ID":"2024-188E","EPOCH":"2026-06-19T02:36:03.971520","MEAN_MOTION":13.11416793,"ECCENTRICITY":0.0001233,"INCLINATION":87.8892,"RA_OF_ASC_NODE":20.6804,"ARG_OF_PERICENTER":75.8431,"MEAN_ANOMALY":284.2834,"EPHEMERIS_TYPE":0,"CLASSIFICATION_TYPE":"U","NORAD_CAT_ID":61598,"ELEMENT_SET_NO":999,"REV_AT_EPOCH":8488,"BSTAR":0.0014344000000000002,"MEAN_MOTION_DOT":5.21e-06,"MEAN_MOTION_DDOT":0.0},{"OBJECT_NAME":"ONEWEB-0691","OBJECT_ID":"2024-188F","EPOCH":"2026-06-19T02:28:44.639616","MEAN_MOTION":13.11418802,"ECCENTRICITY":0.0002112,"INCLINATION":87.8904,"RA_OF_ASC_NODE":20.5904,"ARG_OF_PERICENTER":78.393,"MEAN_ANOMALY":281.7435,"EPHEMERIS_TYPE":0,"CLASSIFICATION_TYPE":"U","NORAD_CAT_ID":61599,"ELEMENT_SET_NO":999,"REV_AT_EPOCH":8473,"BSTAR":0.0012213,"MEAN_MOTION_DOT":4.46e-06,"MEAN_MOTION_DDOT":0.0},{"OBJECT_NAME":"ONEWEB-0692","OBJECT_ID":"2024-188G","EPOCH":"2026-06-19T06:37:46.270272","MEAN_MOTION":13.11413962,"ECCENTRICITY":0.000196,"INCLINATION":87.8883,"RA_OF_ASC_NODE":20.6688,"ARG_OF_PERICENTER":109.8821,"MEAN_ANOMALY":250.2518,"EPHEMERIS_TYPE":0,"CLASSIFICATION_TYPE":"U","NORAD_CAT_ID":61600,"ELEMENT_SET_NO":999,"REV_AT_EPOCH":8474,"BSTAR":0.00094594,"MEAN_MOTION_DOT":3.48e-06,"MEAN_MOTION_DDOT":0.0},{"OBJECT_NAME":"ONEWEB-0693","OBJECT_ID":"2024-188H","EPOCH":"2026-06-19T02:14:59.862624","MEAN_MOTION":13.17648596,"ECCENTRICITY":0.0001245,"INCLINATION":87.9123,"RA_OF_ASC_NODE":5.517,"ARG_OF_PERICENTER":69.1032,"MEAN_ANOMALY":291.0233,"EPHEMERIS_TYPE":0,"CLASSIFICATION_TYPE":"U","NORAD_CAT_ID":61601,"ELEMENT_SET_NO":999,"REV_AT_EPOCH":8613,"BSTAR":-5.922300000000001e-06,"MEAN_MOTION_DOT":1.1e-07,"MEAN_MOTION_DDOT":0.0},{"OBJECT_NAME":"ONEWEB-0695","OBJECT_ID":"2024-188J","EPOCH":"2026-06-19T02:23:51.426528","MEAN_MOTION":13.11418269,"ECCENTRICITY":0.0002422,"INCLINATION":87.8878,"RA_OF_ASC_NODE":20.6957,"ARG_OF_PERICENTER":98.5954,"MEAN_ANOMALY":261.5449,"EPHEMERIS_TYPE":0,"CLASSIFICATION_TYPE":"U","NORAD_CAT_ID":61602,"ELEMENT_SET_NO":999,"REV_AT_EPOCH":8471,"BSTAR":0.0012687000000000002,"MEAN_MOTION_DOT":4.62e-06,"MEAN_MOTION_DDOT":0.0},{"OBJECT_NAME":"ONEWEB-0697","OBJECT_ID":"2024-188K","EPOCH":"2026-06-19T06:49:58.093824","MEAN_MOTION":13.1141435,"ECCENTRICITY":0.0001878,"INCLINATION":87.8883,"RA_OF_ASC_NODE":20.6494,"ARG_OF_PERICENTER":110.515,"MEAN_ANOMALY":249.618,"EPHEMERIS_TYPE":0,"CLASSIFICATION_TYPE":"U","NORAD_CAT_ID":61603,"ELEMENT_SET_NO":999,"REV_AT_EPOCH":8472,"BSTAR":1.8988000000000002e-05,"MEAN_MOTION_DOT":1.9e-07,"MEAN_MOTION_DDOT":0.0},{"OBJECT_NAME":"ONEWEB-0698","OBJECT_ID":"2024-188L","EPOCH":"2026-06-19T00:48:38.314656","MEAN_MOTION":13.11416513,"ECCENTRICITY":0.0001042,"INCLINATION":87.8883,"RA_OF_ASC_NODE":20.7133,"ARG_OF_PERICENTER":123.1768,"MEAN_ANOMALY":236.946,"EPHEMERIS_TYPE":0,"CLASSIFICATION_TYPE":"U","NORAD_CAT_ID":61604,"ELEMENT_SET_NO":999,"REV_AT_EPOCH":8471,"BSTAR":0.0016622000000000002,"MEAN_MOTION_DOT":6.02e-06,"MEAN_MOTION_DDOT":0.0}]